OBJECT_NAME,OBJECT_ID,EPOCH,MEAN_MOTION,ECCENTRICITY,INCLINATION,RA_OF_ASC_NODE,ARG_OF_PERICENTER,MEAN_ANOMALY,EPHEMERIS_TYPE,CLASSIFICATION_TYPE,NORAD_CAT_ID,ELEMENT_SET_NO,REV_AT_EPOCH,BSTAR,MEAN_MOTION_DOT,MEAN_MOTION_DDOT
STARLINK-33601,2025-015L,2026-07-10T21:51:56.914560,15.34386343,.00011914,53.1581,108.2107,92.1661,267.9478,0,U,62768,999,8337,.58915786E-3,.19573E-3,0
STARLINK-33594,2025-015N,2026-07-11T06:07:04.337184,15.31726584,.00077063,53.1681,107.5265,343.2924,16.7822,0,U,62770,999,8341,.74541058E-3,.22872E-3,0
STARLINK-33598,2025-015P,2026-07-11T06:17:16.656576,15.34425455,.00010644,53.1572,106.8381,113.2095,246.9020,0,U,62771,999,8342,.10071391E-2,.33833E-3,0
STARLINK-33600,2025-015Q,2026-07-11T05:53:44.173824,15.31712695,.00016981,53.1566,108.1578,110.4012,249.7172,0,U,62772,999,8340,.10855874E-3,.3006E-4,0
STARLINK-33567,2025-015R,2026-07-11T18:41:35.409120,15.34431830,.0001056,53.1583,104.3810,112.9137,247.1977,0,U,62773,999,8350,.98319E-3,.33022E-3,0
STARLINK-33574,2025-015S,2026-07-11T08:36:23.992992,15.34405703,.00015067,53.1584,106.0298,84.6936,275.4239,0,U,62774,999,8316,.58281918E-3,.1937E-3,0
STARLINK-33576,2025-015T,2026-07-11T03:51:58.743648,15.34397629,.00011611,53.1606,106.9286,89.1902,270.9234,0,U,62775,999,8335,.77760566E-3,.25985E-3,0
STARLINK-33570,2025-015U,2026-07-11T04:04:07.214016,15.34417009,.00012893,53.1603,106.9781,68.0516,292.0623,0,U,62776,999,8335,.94754931E-3,.31791E-3,0
STARLINK-33591,2025-015V,2026-07-11T05:46:58.379808,15.34421578,.00011128,53.1585,106.7143,102.0305,258.0822,0,U,62777,999,8342,.5177121E-3,.17168E-3,0
STARLINK-33573,2025-015W,2026-07-11T03:36:58.510944,15.34424695,.00015643,53.1639,107.5549,125.1479,234.9670,0,U,62778,999,8340,.86583947E-3,.29014E-3,0
STARLINK-33593,2025-015Y,2026-07-11T03:00:35.902656,15.34424407,.00008979,53.1579,107.4098,93.9576,266.1529,0,U,62780,999,8340,.64451628E-3,.21479E-3,0
STARLINK-33588,2025-015Z,2026-07-11T09:11:55.929408,15.34390337,.00011949,53.1564,103.9886,86.9710,273.1429,0,U,62781,999,8347,.45305375E-3,.14957E-3,0
STARLINK-33585,2025-015AA,2026-07-11T04:11:57.471936,15.31708088,.0001224,53.1592,107.7223,55.2260,304.8856,0,U,62782,999,8312,.39283981E-3,.11848E-3,0
STARLINK-33582,2025-015AB,2026-07-11T05:59:17.839392,15.44989216,.00047333,53.1519,103.1908,77.1809,282.9727,0,U,62783,999,8340,.16266441E-2,.78278E-3,0
STARLINK-33581,2025-015AC,2026-07-11T05:26:51.288864,15.31713043,.00018186,53.1586,108.0421,39.3991,320.7142,0,U,62784,999,8340,.44204089E-3,.13382E-3,0
QIANFAN-55,2025-016A,2026-07-11T20:32:43.541664,13.51010468,.0019303,88.9721,81.3192,96.1546,264.1805,0,U,62785,999,7569,.10466E-3,.8E-6,0
QIANFAN-56,2025-016B,2026-07-11T20:56:27.997728,13.51009062,.0017907,88.9695,81.0976,98.0352,262.2832,0,U,62786,999,7574,.12183E-3,.91E-6,0
QIANFAN-58,2025-016D,2026-07-11T21:02:08.708352,13.51013657,.0015909,88.9696,81.0836,91.0204,269.2770,0,U,62788,999,7575,.10535E-3,.8E-6,0
QIANFAN-60,2025-016F,2026-07-11T20:38:45.091968,13.51005524,.0017826,88.9700,81.1401,91.5177,268.8017,0,U,62790,999,7573,.11567E-3,.87E-6,0
QIANFAN-66,2025-016M,2026-07-11T00:33:52.440768,13.47740439,.00135217,88.9720,81.2292,98.4145,261.8537,0,U,62796,999,7568,-.32903281E+1,-.1882513E-1,0
