STARLINK-33601          
1 62768U 25015L   26191.91107540  .00019573  00000+0  58916-3 0  9994
2 62768  53.1581 108.2107 0001191  92.1661 267.9478 15.34386343 83374
STARLINK-33594          
1 62770U 25015N   26192.25491131  .00022872  00000+0  74541-3 0  9995
2 62770  53.1681 107.5265 0007706 343.2924  16.7822 15.31726584 83415
STARLINK-33598          
1 62771U 25015P   26192.26199834  .00033833  00000+0  10071-2 0  9998
2 62771  53.1572 106.8381 0001064 113.2095 246.9020 15.34425455 83425
STARLINK-33600          
1 62772U 25015Q   26192.24565016  .00003006  00000+0  10856-3 0  9997
2 62772  53.1566 108.1578 0001698 110.4012 249.7172 15.31712695 83402
STARLINK-33567          
1 62773U 25015R   26192.77888206  .00033022  00000+0  98319-3 0  9996
2 62773  53.1583 104.3810 0001055 112.9137 247.1977 15.34431830 83509
STARLINK-33574          
1 62774U 25015S   26192.35861103  .00019370  00000+0  58282-3 0  9993
2 62774  53.1584 106.0298 0001506  84.6936 275.4239 15.34405703 83160
STARLINK-33576          
1 62775U 25015T   26192.16109657  .00025985  00000+0  77761-3 0  9994
2 62775  53.1606 106.9286 0001161  89.1902 270.9234 15.34397629 83355
STARLINK-33570          
1 62776U 25015U   26192.16952794  .00031791  00000+0  94755-3 0  9997
2 62776  53.1603 106.9781 0001289  68.0516 292.0623 15.34417009 83353
STARLINK-33591          
1 62777U 25015V   26192.24095347  .00017168  00000+0  51771-3 0  9992
2 62777  53.1585 106.7143 0001112 102.0305 258.0822 15.34421578 83420
STARLINK-33573          
1 62778U 25015W   26192.15067721  .00029014  00000+0  86584-3 0  9991
2 62778  53.1639 107.5549 0001564 125.1479 234.9670 15.34424695 83404
STARLINK-33593          
1 62780U 25015Y   26192.12541554  .00021479  00000+0  64452-3 0  9999
2 62780  53.1579 107.4098 0000897  93.9576 266.1529 15.34424407 83407
STARLINK-33588          
1 62781U 25015Z   26192.38328622  .00014957  00000+0  45305-3 0  9996
2 62781  53.1564 103.9886 0001194  86.9710 273.1429 15.34390337 83479
STARLINK-33585          
1 62782U 25015AA  26192.17497074  .00011848  00000+0  39284-3 0  9997
2 62782  53.1592 107.7223 0001224  55.2260 304.8856 15.31708088 83122
STARLINK-33582          
1 62783U 25015AB  26192.24951203  .00078278  00000+0  16266-2 0  9999
2 62783  53.1519 103.1908 0004733  77.1809 282.9727 15.44989216 83404
STARLINK-33581          
1 62784U 25015AC  26192.22698251  .00013382  00000+0  44204-3 0  9998
2 62784  53.1586 108.0421 0001818  39.3991 320.7142 15.31713043 83407
QIANFAN-55              
1 62785U 25016A   26192.85605952  .00000080  00000+0  10466-3 0  9999
2 62785  88.9721  81.3192 0019302  96.1546 264.1805 13.51010469 75698
QIANFAN-56              
1 62786U 25016B   26192.87254628  .00000091  00000+0  12183-3 0  9992
2 62786  88.9695  81.0976 0017907  98.0352 262.2832 13.51009062 75743
QIANFAN-58              
1 62788U 25016D   26192.87648968  .00000080  00000+0  10535-3 0  9995
2 62788  88.9696  81.0836 0015909  91.0204 269.2770 13.51013657 75754
QIANFAN-60              
1 62790U 25016F   26192.86024413  .00000087  00000+0  11567-3 0  9993
2 62790  88.9700  81.1401 0017825  91.5177 268.8017 13.51005524 75736
QIANFAN-66              
1 62796U 25016M   26192.02352362 -.01882513  00000+0 -32903+1 0  9993
2 62796  88.9720  81.2292 0013521  98.4145 261.8537 13.47740439 75683
